{"type": "FeatureCollection", "features": [ {"type": "Feature", "properties": {"norad_id": 39122, "name": "EUTELSAT 117 WEST A", "group": "eutelsat", "lat": 0.03733876375523912, "lon": 85.82505263302254, "alt_km": 35797.01985187599, "timestamp": "2025-12-20T07:33:50.475175+00:00", "meta": {"OBJECT_NAME": "EUTELSAT 117 WEST A", "OBJECT_ID": "2013-012A", "EPOCH": "2025-12-19T12:21:38.812320", "MEAN_MOTION": 1.00274631, "ECCENTRICITY": 0.0002807, "INCLINATION": 0.032, "RA_OF_ASC_NODE": 299.7491, "ARG_OF_PERICENTER": 334.4616, "MEAN_ANOMALY": 242.7738, "EPHEMERIS_TYPE": 0, "CLASSIFICATION_TYPE": "U", "NORAD_CAT_ID": 39122, "ELEMENT_SET_NO": 999, "REV_AT_EPOCH": 4663, "BSTAR": 0, "MEAN_MOTION_DOT": 1.1e-07, "MEAN_MOTION_DDOT": 0}, "tle": {"line1": "1 39122U 13012A   25353.51503255  .00000011  00000+0  00000+0 0  9998", "line2": "2 39122   0.0320 299.7491 0002807 334.4616 242.7738  1.00274631 46635"}}, "geometry": {"type": "Point", "coordinates": [85.82505263302254, 0.03733876375523912]}}, {"type": "Feature", "properties": {"norad_id": 39163, "name": "EUTELSAT 7B", "group": "eutelsat", "lat": -0.050670840405103466, "lon": -150.44689925916566, "alt_km": 35793.164760650754, "timestamp": "2025-12-20T07:33:50.475188+00:00", "meta": {"OBJECT_NAME": "EUTELSAT 7B", "OBJECT_ID": "2013-022A", "EPOCH": "2025-12-19T06:26:58.431840", "MEAN_MOTION": 1.00270274, "ECCENTRICITY": 0.0004283, "INCLINATION": 0.0652, "RA_OF_ASC_NODE": 356.9078, "ARG_OF_PERICENTER": 324.8571, "MEAN_ANOMALY": 230.1004, "EPHEMERIS_TYPE": 0, "CLASSIFICATION_TYPE": "U", "NORAD_CAT_ID": 39163, "ELEMENT_SET_NO": 999, "REV_AT_EPOCH": 4614, "BSTAR": 0, "MEAN_MOTION_DOT": 7.3e-07, "MEAN_MOTION_DDOT": 0}, "tle": {"line1": "1 39163U 13022A   25353.26873185  .00000073  00000+0  00000+0 0  9996", "line2": "2 39163   0.0652 356.9078 0004283 324.8571 230.1004  1.00270274 46140"}}, "geometry": {"type": "Point", "coordinates": [-150.44689925916566, -0.050670840405103466]}}, {"type": "Feature", "properties": {"norad_id": 39612, "name": "EXPRESS-AT1", "group": "eutelsat", "lat": -0.04856910095773698, "lon": -101.41486997223514, "alt_km": 35788.3878409764, "timestamp": "2025-12-20T07:33:50.475201+00:00", "meta": {"OBJECT_NAME": "EXPRESS-AT1", "OBJECT_ID": "2014-010A", "EPOCH": "2025-12-19T13:31:46.041312", "MEAN_MOTION": 1.00270605, "ECCENTRICITY": 4.94e-05, "INCLINATION": 0.022, "RA_OF_ASC_NODE": 3.3546, "ARG_OF_PERICENTER": 88.7338, "MEAN_ANOMALY": 255.2488, "EPHEMERIS_TYPE": 0, "CLASSIFICATION_TYPE": "U", "NORAD_CAT_ID": 39612, "ELEMENT_SET_NO": 999, "REV_AT_EPOCH": 4301, "BSTAR": 0, "MEAN_MOTION_DOT": 0, "MEAN_MOTION_DDOT": 0}, "tle": {"line1": "1 39612U 14010A   25353.56372733  .00000000  00000+0  00000+0 0  9999", "line2": "2 39612   0.0220   3.3546 0000494  88.7338 255.2488  1.00270605 43015"}}, "geometry": {"type": "Point", "coordinates": [-101.41486997223514, -0.04856910095773698]}}, {"type": "Feature", "properties": {"norad_id": 39613, "name": "EXPRESS-AT2", "group": "eutelsat", "lat": 0.006166711729816418, "lon": -17.53301182164775, "alt_km": 35783.59282068257, "timestamp": "2025-12-20T07:33:50.475213+00:00", "meta": {"OBJECT_NAME": "EXPRESS-AT2", "OBJECT_ID": "2014-010B", "EPOCH": "2025-12-19T15:17:38.440608", "MEAN_MOTION": 1.00271653, "ECCENTRICITY": 0.00010236, "INCLINATION": 0.0167, "RA_OF_ASC_NODE": 316.7703, "ARG_OF_PERICENTER": 332.8216, "MEAN_ANOMALY": 168.1578, "EPHEMERIS_TYPE": 0, "CLASSIFICATION_TYPE": "U", "NORAD_CAT_ID": 39613, "ELEMENT_SET_NO": 999, "REV_AT_EPOCH": 4270, "BSTAR": 0, "MEAN_MOTION_DOT": -2.57e-06, "MEAN_MOTION_DDOT": 0}, "tle": {"line1": "1 39613U 14010B   25353.63725047 -.00000257  00000+0  00000+0 0  9993", "line2": "2 39613   0.0167 316.7703 0001023 332.8216 168.1578  1.00271653 42700"}}, "geometry": {"type": "Point", "coordinates": [-17.53301182164775, 0.006166711729816418]}}, {"type": "Feature", "properties": {"norad_id": 39773, "name": "EUTELSAT 3B", "group": "eutelsat", "lat": -0.035140371960886034, "lon": -154.32721994451364, "alt_km": 35770.18868613306, "timestamp": "2025-12-20T07:33:50.475230+00:00", "meta": {"OBJECT_NAME": "EUTELSAT 3B", "OBJECT_ID": "2014-030A", "EPOCH": "2025-12-19T13:16:47.475264", "MEAN_MOTION": 1.00272393, "ECCENTRICITY": 0.0004172, "INCLINATION": 0.0604, "RA_OF_ASC_NODE": 4.345, "ARG_OF_PERICENTER": 228.1768, "MEAN_ANOMALY": 58.1672, "EPHEMERIS_TYPE": 0, "CLASSIFICATION_TYPE": "U", "NORAD_CAT_ID": 39773, "ELEMENT_SET_NO": 999, "REV_AT_EPOCH": 4226, "BSTAR": 0, "MEAN_MOTION_DOT": 4.5e-07, "MEAN_MOTION_DDOT": 0}, "tle": {"line1": "1 39773U 14030A   25353.55332726  .00000045  00000+0  00000+0 0  9995", "line2": "2 39773   0.0604   4.3450 0004172 228.1768  58.1672  1.00272393 42265"}}, "geometry": {"type": "Point", "coordinates": [-154.32721994451364, -0.035140371960886034]}}, {"type": "Feature", "properties": {"norad_id": 40425, "name": "EUTELSAT 115 WEST B", "group": "eutelsat", "lat": -0.010529930259993549, "lon": 87.7167624874894, "alt_km": 35786.78687698522, "timestamp": "2025-12-20T07:33:50.475242+00:00", "meta": {"OBJECT_NAME": "EUTELSAT 115 WEST B", "OBJECT_ID": "2015-010B", "EPOCH": "2025-12-19T12:08:14.383392", "MEAN_MOTION": 1.00273295, "ECCENTRICITY": 3.76e-05, "INCLINATION": 0.0143, "RA_OF_ASC_NODE": 153.4054, "ARG_OF_PERICENTER": 157.9495, "MEAN_ANOMALY": 204.1658, "EPHEMERIS_TYPE": 0, "CLASSIFICATION_TYPE": "U", "NORAD_CAT_ID": 40425, "ELEMENT_SET_NO": 999, "REV_AT_EPOCH": 3959, "BSTAR": 0, "MEAN_MOTION_DOT": -1e-08, "MEAN_MOTION_DDOT": 0}, "tle": {"line1": "1 40425U 15010B   25353.50572203 -.00000001  00000+0  00000+0 0  9994", "line2": "2 40425   0.0143 153.4054 0000376 157.9495 204.1658  1.00273295 39594"}}, "geometry": {"type": "Point", "coordinates": [87.7167624874894, -0.010529930259993549]}}, {"type": "Feature", "properties": {"norad_id": 40875, "name": "EUTELSAT 8 WEST B", "group": "eutelsat", "lat": -0.02870430306229452, "lon": -165.44022528333733, "alt_km": 35781.63443793274, "timestamp": "2025-12-20T07:33:50.475254+00:00", "meta": {"OBJECT_NAME": "EUTELSAT 8 WEST B", "OBJECT_ID": "2015-039B", "EPOCH": "2025-12-19T18:21:37.631232", "MEAN_MOTION": 1.00271041, "ECCENTRICITY": 0.00042783, "INCLINATION": 0.0634, "RA_OF_ASC_NODE": 356.5296, "ARG_OF_PERICENTER": 273.1926, "MEAN_ANOMALY": 86.3009, "EPHEMERIS_TYPE": 0, "CLASSIFICATION_TYPE": "U", "NORAD_CAT_ID": 40875, "ELEMENT_SET_NO": 999, "REV_AT_EPOCH": 3785, "BSTAR": 0, "MEAN_MOTION_DOT": -4.1e-07, "MEAN_MOTION_DDOT": 0}, "tle": {"line1": "1 40875U 15039B   25353.76501888 -.00000041  00000+0  00000+0 0  9997", "line2": "2 40875   0.0634 356.5296 0004278 273.1926  86.3009  1.00271041 37851"}}, "geometry": {"type": "Point", "coordinates": [-165.44022528333733, -0.02870430306229452]}}, {"type": "Feature", "properties": {"norad_id": 41310, "name": "EUTELSAT 9B", "group": "eutelsat", "lat": 0.023588224429286764, "lon": -148.45099327170388, "alt_km": 35777.37020071824, "timestamp": "2025-12-20T07:33:50.475266+00:00", "meta": {"OBJECT_NAME": "EUTELSAT 9B", "OBJECT_ID": "2016-005A", "EPOCH": "2025-12-19T18:26:29.664960", "MEAN_MOTION": 1.00272484, "ECCENTRICITY": 0.00044618, "INCLINATION": 0.0609, "RA_OF_ASC_NODE": 71.098, "ARG_OF_PERICENTER": 203.9311, "MEAN_ANOMALY": 99.1983, "EPHEMERIS_TYPE": 0, "CLASSIFICATION_TYPE": "U", "NORAD_CAT_ID": 41310, "ELEMENT_SET_NO": 999, "REV_AT_EPOCH": 3631, "BSTAR": 0, "MEAN_MOTION_DOT": 8.6e-07, "MEAN_MOTION_DDOT": 0}, "tle": {"line1": "1 41310U 16005A   25353.76839890  .00000086  00000+0  00000+0 0  9991", "line2": "2 41310   0.0609  71.0980 0004461 203.9311  99.1983  1.00272484 36315"}}, "geometry": {"type": "Point", "coordinates": [-148.45099327170388, 0.023588224429286764]}}, {"type": "Feature", "properties": {"norad_id": 41382, "name": "EUTELSAT 65 WEST A", "group": "eutelsat", "lat": 0.025762387699887875, "lon": 137.37683714770068, "alt_km": 35791.62469934651, "timestamp": "2025-12-20T07:33:50.475279+00:00", "meta": {"OBJECT_NAME": "EUTELSAT 65 WEST A", "OBJECT_ID": "2016-014A", "EPOCH": "2025-12-19T11:38:39.170976", "MEAN_MOTION": 1.00274135, "ECCENTRICITY": 0.0002092, "INCLINATION": 0.0543, "RA_OF_ASC_NODE": 330.1482, "ARG_OF_PERICENTER": 300.8547, "MEAN_ANOMALY": 286.7795, "EPHEMERIS_TYPE": 0, "CLASSIFICATION_TYPE": "U", "NORAD_CAT_ID": 41382, "ELEMENT_SET_NO": 999, "REV_AT_EPOCH": 3573, "BSTAR": 0, "MEAN_MOTION_DOT": -2.52e-06, "MEAN_MOTION_DDOT": 0}, "tle": {"line1": "1 41382U 16014A   25353.48517559 -.00000252  00000+0  00000+0 0  9990", "line2": "2 41382   0.0543 330.1482 0002092 300.8547 286.7795  1.00274135 35738"}}, "geometry": {"type": "Point", "coordinates": [137.37683714770068, 0.025762387699887875]}}, {"type": "Feature", "properties": {"norad_id": 41589, "name": "EUTELSAT 117 WEST B", "group": "eutelsat", "lat": -0.011118140301266012, "lon": 85.62012521070257, "alt_km": 35787.0766335766, "timestamp": "2025-12-20T07:33:50.475290+00:00", "meta": {"OBJECT_NAME": "EUTELSAT 117 WEST B", "OBJECT_ID": "2016-038B", "EPOCH": "2025-12-19T12:07:15.989088", "MEAN_MOTION": 1.00271292, "ECCENTRICITY": 3.33e-05, "INCLINATION": 0.0139, "RA_OF_ASC_NODE": 154.0822, "ARG_OF_PERICENTER": 162.5919, "MEAN_ANOMALY": 196.5118, "EPHEMERIS_TYPE": 0, "CLASSIFICATION_TYPE": "U", "NORAD_CAT_ID": 41589, "ELEMENT_SET_NO": 999, "REV_AT_EPOCH": 3486, "BSTAR": 0, "MEAN_MOTION_DOT": 1.3e-07, "MEAN_MOTION_DDOT": 0}, "tle": {"line1": "1 41589U 16038B   25353.50504617  .00000013  00000+0  00000+0 0  9993", "line2": "2 41589   0.0139 154.0822 0000333 162.5919 196.5118  1.00271292 34862"}}, "geometry": {"type": "Point", "coordinates": [85.62012521070257, -0.011118140301266012]}}]}